STARLINK-2169
1 47752U 21017AG  26092.70357870  .00037401  00000+0  78447-3 0  9999
2 47752  53.1584  91.2298 0001376  88.2346 271.8819 15.45053107281583
